ONEWEB-0298             
1 49087U 21075N   23277.55305444 -.00000033  00000+0 -11861-3 0  9991
2 49087  87.9262 201.9321 0001737  80.6381 279.4947 13.17649399103699
ONEWEB-0299             
1 49088U 21075P   23277.55514409  .00000067  00000+0  13963-3 0  9995
2 49088  87.9194 201.9402 0001609  80.8285 279.3029 13.17646830103672
ONEWEB-0300             
1 49089U 21075Q   23277.74724746  .00000095  00000+0  22821-3 0  9998
2 49089  87.9071 186.7957 0002134  67.8470 292.2884 13.12447208106801
ONEWEB-0301             
1 49090U 21075R   23277.73242904  .00000302  00000+0  80478-3 0  9993
2 49090  87.9075 186.8005 0002209  78.2871 281.8505 13.12446867106169
ONEWEB-0302             
1 49091U 21075S   23277.49205811  .00000056  00000+0  12039-3 0  9997
2 49091  87.9072 186.8447 0001612  71.2925 288.8378 13.12444822105126
ONEWEB-0304             
1 49092U 21075T   23277.53194528 -.00000304  00000+0 -81625-3 0  9990
2 49092  87.9248 201.9385 0001743  80.4394 279.6935 13.17648269103647
ONEWEB-0305             
1 49093U 21075U   23277.52140296 -.00000079  00000+0 -23588-3 0  9996
2 49093  87.9175 201.9421 0001439  84.0429 276.0866 13.17651204103679
ONEWEB-0308             
1 49094U 21075V   23277.48676103 -.00000194  00000+0 -57573-3 0  9992
2 49094  87.9072 186.8481 0001958  76.8458 283.2889 13.12443411105132
